TELSTAR 11N             
1 34111U 09009A   09077.91207120 -.00000258  00000-0  00000+0 0   269
2 34111   0.0446 299.1319 0003269 354.0061 174.2466  1.00271130   251
SL-23 R/B               
1 34112U 09009B   09077.32936733 -.00000005  00000-0  00000+0 0   107
2 34112  34.8381  81.6814 6901286   6.9706 359.0604  2.20463522   449
2009-010A               
1 34264U 09010A   09076.69385589 -.00000073  00000-0  10000-3 0   181
2 34264   1.4529 230.4258 0029995 141.3423  71.2436  0.99098613   174
2009-010B               
1 34265U 09010B   09076.99349469 -.00000013  00000-0  10000-3 0   197
2 34265   1.4775 230.8557 0008610  16.7169 358.4783  0.99992923   179
SL-12 DEB(AUX MOTOR)    
1 34268U 09010E   09077.77629600  .00000303  00000-0  23817-3 0    95
2 34268  47.5415 224.8196 7273557   4.8608 359.3070  2.26417364   388
SL-12 DEB(AUX MOTOR)    
1 34269U 09010F   09076.42177726  .00000855  00000-0  23199-3 0   112
2 34269  47.4922 225.1079 7291602   4.6225 359.3356  2.26819871   318
KEPLER                  
1 34380U 09011A   09067.01744983  .00000005  00000-0  00000-0 0    16
2 34380  28.5514  43.9608 2287689 108.4676 277.6729  7.34265484    68
DELTA 2 R/B(2)          
1 34381U 09011B   09066.60924430  .00000005  00000-0  00000-0 0    18
2 34381  28.5476  44.5104 2287097 107.5267 278.6464  7.34265542    32
DELTA 2 R/B(1)          
1 34382U 09011C   09078.99004486  .00000008  00000-0  00000+0 0    61
2 34382  28.5510  27.5771 2287669 135.1162 245.8651  7.34274019   942
STS 119                 
1 34541U 09012A   09076.80103698  .00010408  00000-0  83928-4 0   152
2 34541  51.6403  55.1451 0009407 132.9154 304.1851 15.71522027   299
GOCE                    
1 34602U 09013A   09079.09505928  .00034175  23859-5  77697-4 0   141
2 34602  96.7066  87.7823 0013311 311.6790  48.3343 15.97606073   393
SL-19 R/B               
1 34603U 09013B   09079.08216731  .00120630  83146-5  14144-3 0   113
2 34603  96.6388  87.6535 0045558  16.1459 344.1264 16.06473041   382
